Facility,Address,Latitude,Longitude,Type
"Picciotti, Isabella M MD",1 Allegheny Square,40.451948,-80.004895,Primary Care
UPMC Emergency Medicine Inc,1 Childrens Hospital Drive,40.467315,-79.95359,Primary Care
Hoover Medical Associates PC,100 Delafield Rd,40.490244,-79.895719,Primary Care
Partners in Nephrology and Endocrinology,100 Delafield Road,40.506845,-79.908076,Primary Care
Bahl and Bahl Med Assoc,"100 Delafield Road, Ste 103",40.490244,-79.895719,Primary Care
"Zioncheck, Roger MD PC",100 Eighth Ave,40.347704,-79.866961,Primary Care
Premier Medical Associates CRNP,100 Forest Hills Plaza,40.435067,-79.861938,Primary Care
Heritage Valley Convenient Care Retail,100 Hazel Lane,40.542415,-80.192742,Primary Care
"Zioncheck, Roger MD PC",100 Ninth Ave,40.347396,-79.867398,Primary Care
University of Pittsburgh Physicians,100 North Bellfield,40.447147,-79.951826,Primary Care
Health Associates of Western PA PC,100 South Jackson,40.494569,-80.060335,Primary Care
North Hills Internal Medicine,100 South Jackson Avenue,40.494569,-80.060335,Primary Care
"Yeasted, George A MD",1000 Bower Hill Road,40.378099,-80.06661,Primary Care
Montour Fam Healthcare,1000 Cliff Mine Road,40.457664,-80.194634,Primary Care
JRMC Specialty Practice Wound Care,1000 Higbee Drive,40.337675,-80.021363,Primary Care
CCP Gil,1000 Infinity Drive,40.42118,-79.788102,Primary Care
Premier Medical  Associates Family  Practice,1000 Integrity Drive,40.458341,-79.824722,Primary Care
Chris T ODonnell MD PC,1000 Masonic Drive,40.528404,-80.143566,Primary Care
Circulatory Center of PA Inc,1000 Stonewood Drive,40.642484,-80.065567,Primary Care
Addiction and Recovery Health Services,1000 West View Park Drive,40.516008,-80.037483,Primary Care
Weigles Hill Family Medicine,1001 Weigles Hill Road,40.256259,-79.853304,Primary Care
Mercy Behavioral Health,1004 Arch Street,40.453936,-80.00869,Primary Care
Colonnades Family Medicine,101 Bradford Road,40.642988,-80.069097,Primary Care
Mercy Behavioral Health,101 Station Square Drive,40.432446,-80.004039,Primary Care
University of Pittsburgh Physicians,1011 Bingham Street,40.429746,-79.988099,Primary Care
Preferred Primary Care Physicians,102 Broadway Avenue,40.409413,-80.087205,Primary Care
"Choi, Sean H MD",102 Seventh St.,40.324109,-79.893127,Primary Care
GMA Heyl Family Practice,1020 Center Avenue,40.520578,-80.037986,Primary Care
Comprehensive Care Associates UPMC,1024 West View Park Drive,40.516372,-80.038801,Primary Care
Fatigati and Nalin Associates,1025 Washington Pike,40.367163,-80.110119,Primary Care
Community Family Practice UPMC,1026 Duquesne Boulevard,40.384619,-79.860333,Primary Care
Bentz Grob Scheri and Woodburn Family Medicine,103 Bradford Road,40.643602,-80.06943,Primary Care
RFP RIDC UPMC,103 Gamma Drive,40.494749,-79.872986,Primary Care
Horodnic Family Medicine LLC,103 North Meadows Drive,40.611747,-80.055717,Primary Care
Teladoc Physicians PA,1030 Summer Place,40.37376,-80.060807,Primary Care
Preferred Primary Care Physicians,1039 Brookline Boulevard,40.39201,-80.016117,Primary Care
Health First Medical Assoc UPMC,1048 Lincoln Way,40.354184,-79.825067,Primary Care
"Clements, Harry Michael, MD",1049 Brookline Blvd,40.391982,-80.015966,Primary Care
Prime Care Int Medc Assoc PC,1049 Unity Center Rd,40.476919,-79.754192,Primary Care
Caring Hands Pediatrics PC,105 Braunlich Drive,40.521766,-80.003444,Primary Care
CCP Allegheny,105 Gamma Drive,40.49479,-79.871982,Primary Care
West Penn Medical Associates,105 Hill Avenue,40.541322,-79.802771,Primary Care
Keystone Anesthesia Consultants LTD,1050 Bower Hill,40.37791,-80.068046,Primary Care
UPP Department of Surgery,1050 Bower Hill Road,40.37791,-80.068046,Primary Care
MedExpress Urgent Care PC Pennsylvania,10632 Perry Highway,40.613439,-80.053004,Primary Care
Mamatas Ragoor Primary Care Associates,10700 Frankstown Road,40.460751,-79.840492,Primary Care
UPP General Internal Medicine,108 Penn Plaza,40.405694,-79.832373,Primary Care
Bahl and Bahl Med Assoc,10922 Frankstown Road,40.464416,-79.839122,Primary Care
Jules Kann and Malcolm Harris MD,1099 North Avenue,40.491842,-79.974099,Primary Care
Chris T ODonnell MD PC,1099 Ohio River Boulevard,40.532848,-80.175563,Primary Care
Gateway Medical Group UPMC,1100 Washington Avenue,40.398057,-80.084391,Primary Care
HVMG Fifth Avenue Medical Associates,1101 Fifth Avenue,40.517045,-80.162384,Primary Care
"Ke, Katherine C MD PC",1106 Ohio River Boulevard,40.531159,-80.174347,Primary Care
RFP Millvale UPMC,111 Sheridan Street,40.479001,-79.971013,Primary Care
University Ped Assoc Primary Care,112 Penn Avenue,40.405237,-79.826419,Primary Care
University of Pittsburgh Physicians,112 Washington Place,40.439355,-79.992153,Primary Care
Minute Clinic Diagnostic of PA LLC,11240 Perry Highway,40.62134,-80.053811,Primary Care
"Gorelik, Mark MD",11279 Perry Highway,40.622213,-80.054661,Primary Care
Wexford Medical Practice,1130 Perry Highway,40.547834,-80.035657,Primary Care
Absolute Primary Care UPMC,11360 Perry Highway Maple Row,40.617727,-80.059407,Primary Care
Elizabeth Ann Ruberg PC,1136L Thorn Run Road,40.505906,-80.209509,Primary Care
Bentz Grob Scheri and Woodburn Family Medicine,1140 Perry Highway,40.549307,-80.036086,Primary Care
Preferred Primary Care Physicians,1145 Bower Hill Road,40.374612,-80.070102,Primary Care
Khan Medical Assoc LLC,116 Daugherty Drive,40.435243,-79.754432,Primary Care
"Gowda, Anu MD",11618 Frankstown Rd,40.465009,-79.827755,Primary Care
"Garrick Drago, Monica G MD",11676 Perry Highway,40.627185,-80.054699,Primary Care
Preferred Primary Care Physicians,1168 Washington Pike,40.36904,-80.101294,Primary Care
Primary Care Health Services Group Practice,117 North Negley Avenue,40.463712,-79.930565,Primary Care
Univ Rheumatology Svc,117 VIP Drive,40.619101,-80.094145,Primary Care
UPMC Keystone Primary Care Dr Shetty,118 Fox Road,40.434943,-79.760546,Primary Care
Sewickley Valley Pediatric and Adolescent Medicine PC,119 VIP Drive,40.619921,-80.094324,Primary Care
HVMG The Heart and Vascular Center Leetsdale,12 Quaker Valley Shopping Center,40.567165,-80.212116,Primary Care
"Kairis, Edwin J, MD",120 5th AVenue,40.441888,-80.003443,Primary Care
"Owens, Michael R MD",120 Fifth Avenue,40.441888,-80.003443,Primary Care
"Majewski, Philip, M, MD",120 Fifth Avenue Place,40.441888,-80.003443,Primary Care
Concentra Urgent Care,120 Lytton Avenue,40.446371,-79.954946,Primary Care
University Cardiology Service,120 Lytton Avenue M060,40.446371,-79.954946,Primary Care
Prime Medical Group PCG1-Chauhan Assocs,1200 Brooks Lane,40.315209,-79.937566,Primary Care
Mercy Behavioral Health,1200 Reedsdale Street,40.448454,-80.019976,Primary Care
"Linder, Paul G MD",1201 Broughton Road,40.330347,-79.988739,Primary Care
"Purpura, Lawrence J MD",1206 Brookline Boulevard,40.391958,-80.012798,Primary Care
Hanzlik Wang DeFrances Associates UPMC,121 Freeport Rd,40.491582,-79.866871,Primary Care
Daljit Singh MD Associates,121 Freeport Road,40.671676,-79.689041,Primary Care
Geriatric Care Center,1215 Hulton Road,40.526908,-79.829081,Primary Care
CCP Monroeville Pediatric Assocs,1220 Lincoln Highway,40.351573,-79.822201,Primary Care
McGinnis Thoracic and Cardiovascular Associates,12311 Perry Highway,40.635686,-80.063552,Primary Care
UPP Department of Surgery,125 Daugherty Drive,40.436132,-79.755593,Primary Care
"Pfoff, Robert, M, MD",125 Warren Road,40.658365,-80.073978,Primary Care
HVMG Billing,1254 Route 30,40.630862,-79.826371,Primary Care
Teladoc Physicians PA,126 Elmhurst Drive,40.530186,-80.265878,Primary Care
Jules Kann and Malcolm Harris MD,128 North Craig Street,40.447971,-79.948795,Primary Care
Univ Ear Nose Throat Specialists,1300 Oxford Drive,40.343066,-80.048443,Primary Care
Emergency Medicine Physicians of Alle Kiski,1301 Carlisle Street,40.618767,-79.736921,Primary Care
Renal and Hypertension Consultants,1303 Lincoln Way,40.351337,-79.820778,Primary Care
Allegheny Orthopaedic Associates,1307 Federal Street,40.457189,-80.007726,Primary Care
Ohio Valley Professional Services,1308 Fifth Avenue,40.515387,-80.159378,Primary Care
Primary Care Group 7 JRMC Internal Medicine,1310 Hoffman Boulevard,40.383319,-79.869013,Primary Care
General Medical Practitioners PC,1312 Federal Street,40.457088,-80.006828,Primary Care
Health First Medical Assoc UPMC,1318 Fifth Avenue,40.351926,-79.85137,Primary Care
University Gastroenterology,1320 Fifth Avenue,40.352034,-79.851342,Primary Care
Allegheny Orthopaedic Associates,133 Church Hill Road,40.442562,-80.148859,Primary Care
Allegheny Center For Digestive Health,133 Churchill Road,40.472038,-80.062892,Primary Care
"Nelson, Bruce N MD",135 Cumberland Road,40.572418,-80.035775,Primary Care
Pittsburgh Medical Associates,1350 Locust Street,40.436674,-79.986263,Primary Care
SMA DeerLakes PC,1360 Old Freeport Road,40.488238,-79.874424,Primary Care
Pediatric Alliance Chartiers McMurray Div,1370 Washington Pike,40.378832,-80.095322,Primary Care
PPCP McMurray Brookline,140 Curry Hollow Road,40.339121,-79.968609,Primary Care
University Neonatology Associates,1400 Locust Street,40.436137,-79.985285,Primary Care
Rehabilitation Medicine,1405 Shady Avenue,40.443209,-79.919456,Primary Care
Ladani Medical Associates LLC,142 South Twentieth Street,40.426506,-79.978034,Primary Care
"Seth, Prabhat MD",1430 Lincoln Way,40.349717,-79.819523,Primary Care
Family Medicine Assoc Ltd,1432 Lincoln Way,40.349533,-79.819291,Primary Care
Alliance Cardiology UPMC,1433 Fawcett Avenue,40.34917,-79.819564,Primary Care
"Tenenouser, Barry MD",146 North Bellefield Avenue,40.447838,-79.952131,Primary Care
Mercy Behavioral Health,149 Monastery Avenue,40.429303,-79.972424,Primary Care
Concentra Urgent Care,15 Freeport Road,40.492684,-79.909096,Primary Care
UPMC McKeesport Internal Medicine Ctr,1500 5th Avenue,40.351343,-79.849457,Primary Care
UPP General Internal Medicine,1500 Fifth Avenue,40.351343,-79.849457,Primary Care
"Carmen, Thomas F MD",1500 Village Run Road,40.633555,-80.057795,Primary Care
University Cardiology Service,1501 Locust Street,40.436846,-79.985205,Primary Care
Sto Rox Neighborhood Hlth Council Inc PCP,151 Ruth Street,40.423008,-80.004718,Primary Care
University Ped Assoc Primary Care,1515 Locust Street,40.437097,-79.984539,Primary Care
Pittsburgh Family Practice Assoc LLC,1517 Forbes Avenue,40.437774,-79.984411,Primary Care
MedExpress Urgent Care PC Pennsylvania,1535 Washington Road,40.356429,-80.049771,Primary Care
"Edwards, Robert G MD PC",1539 Lincoln Avenue,40.469657,-79.894978,Primary Care
University of Pittsburgh Physicians,155 North Craig Street,40.449079,-79.950642,Primary Care
Pediatric Alliance St Clair Div,1580 McLaughlin Run Road,40.34659,-80.083198,Primary Care
Teredesai McCann Associates PC,1597 Washington Pike,40.382618,-80.095126,Primary Care
"Haretos, John T., MD",160 North Craig Street,40.449541,-79.950146,Primary Care
CCP Moon and Wexford,1600 Coraopolis Heights Road,40.499854,-80.20746,Primary Care
CCP Allegheny,1600 Pacific Avenue,40.619481,-79.726066,Primary Care
Concentra Urgent Care,1600 West Carson Street,40.442085,-80.021313,Primary Care
Health Center Ophthalmology Inc,1603 Carmody Court,40.612136,-80.097913,Primary Care
Oncology Hematology Association,1604 Burtner Road,40.631047,-79.727281,Primary Care
Health Center Ophthalmology Inc,1605 Lincoln Way,40.348001,-79.816737,Primary Care
University Gastroenterology,1606 Carmody Court,40.613085,-80.097033,Primary Care
"Serbin, Scott R MD",1614 Country Club Drive,40.5643,-80.080947,Primary Care
Mohan M Patel MD,1616 Pacific Avenue,40.623656,-79.724259,Primary Care
Premier Medical  Associates Family  Practice,1620 Golden Mile Highway,40.435247,-79.713422,Primary Care
Alle Kiski Medical Associates,1621 C Union Avenue,40.621447,-79.726132,Primary Care
GMA Heck and Assoc Medical Practice,1622 Lowrie Street,40.463371,-79.983151,Primary Care
McGinnis Thoracic and Cardiovascular Associates,1624 Pacific Avenue,40.623628,-79.724227,Primary Care
John E Love Family Practice,1626 Potomac Avenue,40.398053,-80.036467,Primary Care
"Kumar, Rakesh, MD",1629 Union Avenue,40.621771,-79.725822,Primary Care
University Cardiology Service,1668 Lincoln Way,40.345562,-79.816332,Primary Care
Medi Help,1691 Washington Road,40.351409,-80.050204,Primary Care
Individualized Advanced Medical Center of Pittsburgh,17 Brilliant Avenue,40.489416,-79.90132,Primary Care
Community Family Practice UPMC,1713 Ardmore Boulevard,40.426973,-79.862359,Primary Care
Allegheny Valley Internal Medicine,1719 Union Avenue,40.622488,-79.724309,Primary Care
Mercy Behavioral Health,1722 Brownsville Road,40.397601,-79.988585,Primary Care
Handelsman Family Practice LLC,1723 Ardmore Boulevard,40.42605,-79.861607,Primary Care
Jalit Tuchinda MD PC,1726 East Carson Street,40.428593,-79.981118,Primary Care
RFP Morningside UPMC,1748 Jancey Street,40.485599,-79.926402,Primary Care
Freedom Healthcare Services LLC,1780 Taper Drive,40.35317,-80.080707,Primary Care
"Ryoo, In O MD",1789 Pine Hollow Road,40.4774,-80.102719,Primary Care
UPMC Keystone Primary Care Drs Ou and Tong,1789 South Braddock Avenue,40.424346,-79.887357,Primary Care
Circulatory Center of PA Inc,180 Fort Couch Road,40.346228,-80.053662,Primary Care
"Chen, Anne, MD",180 Imperial Plaza Drive,40.441948,-80.235178,Primary Care
Oncology Hematology Association,1800 Pine Hollow Road,40.477709,-80.102656,Primary Care
Petz and Associates UPMC,1800 Union Avenue,40.623481,-79.722994,Primary Care
South Hills Family Medicine LLC,1800 West Street,40.399882,-79.905737,Primary Care
Lincoln Way Internal Medicine,1801 Lincoln Way,40.347275,-79.816717,Primary Care
"Waligura, R Curtis DO",1801 West Street,40.400076,-79.904818,Primary Care
"Udekwu, Catherine MD",1811 Boulevard of the Allies,40.440368,-79.983611,Primary Care
Primary Care Health Services Group Practice,1835 Centre Avenue,40.443111,-79.98187,Primary Care
UPMC Emergency Medicine Inc,1870 Broadview Boulevard,40.623963,-79.722566,Primary Care
Raja Chakrapani MD Rc Med Assoc,1872 Homeville Road,40.373678,-79.873734,Primary Care
Sterling Pediatrics LLC,1900 Murray Ave,40.435811,-79.923142,Primary Care
Addiction and Recovery Health Services,1900 Murray Avenue,40.435811,-79.923142,Primary Care
Hematology Oncology Association,1907 Lebanon Church Road,40.348525,-79.950318,Primary Care
Preferred Primary Care Physicians,1910 Cochran Road,40.393296,-80.065665,Primary Care
Premier Med Assoc Int Medicine,1916 Lincoln Highway,40.366816,-79.7787,Primary Care
CCP South Hills Ped Assoc,1925 Route 51 South,40.291552,-79.912612,Primary Care
Greater Pittsburgh Med Assoc UPMC,193 43rd Street,40.470851,-79.960462,Primary Care
Mercy Behavioral Health,1945 Fifth Avenue,40.438427,-79.977878,Primary Care
White Oak Medical Center LLC,1949 Lincoln Way,40.347275,-79.816717,Primary Care
"Ditoppa, Louis A DO",1978 Lincoln Way,40.338697,-79.81021,Primary Care
MedExpress Urgent Care PC Pennsylvania,1984 Greentree Road,40.394572,-80.067031,Primary Care
UPMC Emergency Medicine Inc,2 Hot Metal Street,40.426063,-79.964328,Primary Care
"Danaie, Nosratollah MD",20 Bailey Avenue,40.426756,-80.004793,Primary Care
"Cipriani, Alphonse J MD",20 Cedar Boulevard,40.381767,-80.045298,Primary Care
Providence Point,200 Adams Avenue,40.376902,-80.086217,Primary Care
University Geriatric Medicine Service,200 Delafield Road,40.489901,-79.894796,Primary Care
Pittsburgh Cardiovascular Institute,200 James Place,40.427106,-79.754704,Primary Care
University Critical Care,200 Lothrop Sreet,40.442561,-79.960983,Primary Care
University Gastroenterology,200 Lothrop Street,40.442561,-79.960983,Primary Care
Univ Endocrinology Svc,200 Medical Arts Building,40.49027,-79.895713,Primary Care
Khan Medical Assoc LLC,200 Penn Avenue,40.446025,-79.89268,Primary Care
Allegheny Medical PC,2000 Cliff Mine Road,40.456951,-80.191975,Primary Care
Macisaac Family Medicine LLC,2000 Corporate Drive,40.609559,-80.088934,Primary Care
University Anesthesiology,2000 Mary Street,40.425591,-79.977756,Primary Care
Preferred Primary Care Physicians,2000 Oxford Drive,40.344057,-80.052552,Primary Care
Imaging Assoc Greater Pittsburgh,2001 Lincoln Way,40.337364,-79.805396,Primary Care
Community Care Plus,2011 Kinvara Drive,40.535676,-80.009807,Primary Care
Seetha Chandra MD UPMC,2020 Ardmore Boulevard,40.421251,-79.853621,Primary Care
Raja Chakrapani MD Rc Med Assoc,2020 Monongahela,40.419858,-79.889456,Primary Care
Allegheny Center For Digestive Health,2027 Lebanon Church Road,40.348529,-79.949507,Primary Care
Health Center Ophthalmology Inc,203 Lothrop Street,40.437926,-79.955642,Primary Care
"D Eramo, Linda DO",203 Nottingham Drive,40.494016,-80.172297,Primary Care
Partners in Nephrology and Endocrinology,2030 Ardmore Boulevard,40.420675,-79.852455,Primary Care
"Ryoo, In O MD",205 Commerce Drive,40.459113,-80.196255,Primary Care
CCP Moon and Wexford,205 Millers Run Road,40.358018,-80.122857,Primary Care
Jose B Caballe MD UPMC,207 West 7th Avenue,40.405507,-79.914409,Primary Care
Alliance Cardiology UPMC,21 Yost Boulevard,40.413984,-79.847126,Primary Care
Adler and Krause Card Med Assoc,21 Yost at Ardmore Boulevard,40.413984,-79.847126,Primary Care
McCollum Corporation,2100 Jane Street,40.42648,-79.976796,Primary Care
"Chengappa, Palecanda P MD",2100 Jane Street South,40.42648,-79.976796,Primary Care
"Ahmed, Adiba S MD",2101 Greentree Road,40.390563,-80.072422,Primary Care
"Hodges, Allen R, MD",211 North Whitfield Street,40.463133,-79.925317,Primary Care
"Iannuzzi, C C MD PC",2115 Noble Street,40.431319,-79.88688,Primary Care
Premier Medical  Associates Family  Practice,2140 Ardmore Boulevard,40.418277,-79.84942,Primary Care
Daniel Steiner MD UPMC,215 Allegheny Avenue,40.514488,-79.844005,Primary Care
Prime Care Int Medc Assoc PC,220 East Eighth Avenue,40.407209,-79.909937,Primary Care
Emmanuel Family Practice Associates,2204 06 Murray Avenue,40.432195,-79.923321,Primary Care
"Fletcher, Douglas D MD",221 Penn Avenue,40.446188,-79.892247,Primary Care
SMA DeerLakes PC,221 Russelton Dorseyville Road,40.60392,-79.86095,Primary Care
SMA DeerLakes PC,222 Allegheny River Boulevard,40.514735,-79.843097,Primary Care
"Brandy, Dominic A MD",2275 Swallow Hill Rd,40.389166,-80.072547,Primary Care
Scott Medical Health Center MD Group,2275 Swallow Hill Road,40.389166,-80.072547,Primary Care
University Emergency Physicians Inc,230 McKee Place,40.439029,-79.959155,Primary Care
Rehabilitation Medicine,2300 Jane Street,40.425724,-79.972597,Primary Care
UPMC Emergency Medicine Inc,2300 McKee Place,40.440361,-79.960201,Primary Care
Rehabilitation Medicine,2310 Jane Street,40.42646,-79.972555,Primary Care
UPMC McKeesport Latterman Fam Hlth Ctr,2347 5th Avenue,40.354556,-79.837219,Primary Care
Vitas Solutions Inc,235 Alpha Drive,40.491877,-79.872062,Primary Care
Preferred Primary Care Physicians,2375 Greentree Road,40.389714,-80.080622,Primary Care
UPMC Family Medicine South,2397 Mountain View Drive,40.344616,-79.945876,Primary Care
Pediatrics South Inc,240 Mount Lebanon Boulevard,40.367907,-80.037588,Primary Care
Arnold Family Practice,2400 Ardmore Boulevard,40.415079,-79.847561,Primary Care
Franklin Park Family Practice UPMC,2400 Corporate Drive,40.610267,-80.087627,Primary Care
"Zelonis, Thomas, G., DO",2403 S Park Rd,40.329654,-80.022528,Primary Care
"Zelonis,  Lawrence J, DO",2403 South Park Road,40.329654,-80.022528,Primary Care
Ladani Medical Associates LLC,2409 Brownsville Road,40.387164,-79.982739,Primary Care
Prime Care Medical Associates UPMC,241-251 Freeport Road,40.489803,-79.903786,Primary Care
Family Practice Medical Associates South,2414 Lytle Road,40.334084,-80.025248,Primary Care
Mercy Behavioral Health,249 South 9th Street,40.430322,-79.989072,Primary Care
Pittsburgh Cardiovascular Institute,2490 Mosside Boulevard,40.424318,-79.754117,Primary Care
UPMC Emergency Medicine Inc,25 Heckel Road,40.472755,-80.090742,Primary Care
Ohio Valley Professional Services,25 Heckle Road,40.472755,-80.090742,Primary Care
Dobkin and Riccelli Associates,250 Mount Lebanon Boulevard,40.36799,-80.036804,Primary Care
Behm Family Practice UPMC,2500 Brooktree Road,40.615332,-80.057881,Primary Care
Banksville Medical P C,2508 Banksville Avenue,40.407089,-80.034973,Primary Care
Teladoc Physicians PA,252 Arden Road,40.391118,-80.049063,Primary Care
Penn Pediatrics LLC,2550 Mosside Blvd,40.427018,-79.752606,Primary Care
Allegheny Center For Digestive Health,2550 Mosside Boulevard,40.427018,-79.752606,Primary Care
East Suburban Ped Assoc LTD,2566 Haymaker Road,40.42797,-79.748282,Primary Care
Emergency Medicine Physicians of Allegheny,2570 Haymaker Road,40.428975,-79.748091,Primary Care
Hematology Oncology Association,2571 Mosside Boulevard,40.428315,-79.752766,Primary Care
Allegheny Orthopaedic Associates,2580 Haymaker Road,40.427892,-79.748081,Primary Care
Russellton Medical Group UPMC,2585 Freeport Road,40.536499,-79.843125,Primary Care
"Moretti, James M MD",2589 Washington Road,40.314155,-80.089085,Primary Care
Univ Endocrinology Svc,259 Mount Nebo Pointe Drive,40.534891,-80.068198,Primary Care
UPMC Squirrel Hill,259 Mt Nebo Pointe Drive,40.534891,-80.068198,Primary Care
Heritage Valley Associates in Family Medicine,2591 Wexford-Bayne Road,40.612924,-80.102696,Primary Care
"Kross, Timothy MD",2593 Wexford Bayne Road,40.613324,-80.102034,Primary Care
Univ Ear Nose Throat Specialists,2599 Wexford Bayne Road,40.614271,-80.100843,Primary Care
MedExpress Urgent Care PC Pennsylvania,2600 Old Washington Road,40.312611,-80.089602,Primary Care
"Barnett, Alan J, MD",2627 Murray Avenue,40.429072,-79.923857,Primary Care
Scott Medical Health Center MD Group,2630 Brandt School Road,40.615584,-80.092988,Primary Care
MedExpress Urgent Care PC Pennsylvania,2644 Mosside Boulevard,40.431835,-79.750547,Primary Care
Partners in Nephrology and Endocrinology,2690 Monroeville Boulevard,40.435479,-79.780701,Primary Care
Ladani Medical Associates LLC,27 Heckel Road,40.472389,-80.091189,Primary Care
"Waligura, R Curtis DO",2709 ONeil Boulevard,40.353269,-79.825433,Primary Care
"Chen, Anne, MD",2715 Brownsville Road,40.38405,-79.977365,Primary Care
UPP General Internal Medicine,2775 Mosside Boulevard,40.436561,-79.760197,Primary Care
CCP Monroeville,2790 Mosside Boulevard,40.437541,-79.75748,Primary Care
Minute Clinic Diagnostic of PA LLC,2860 Wildwood Road Extension,40.58983,-79.946824,Primary Care
Pittsburgh Medical Associates PC,2891 Banksville Road,40.40323,-80.040077,Primary Care
Shabbir Lakdawala MD PC,2912 Glenmore Avenue,40.39565,-80.03522,Primary Care
Lindenbaum Perryman and Assocs UPMC,2920 West Liberty Avenue,40.394808,-80.03498,Primary Care
Circulatory Center of PA Inc,3 PPG Place,40.4401,-80.002703,Primary Care
"Iyer, Vish MD PC",30 High Street,40.497758,-79.945666,Primary Care
Mt Lebanon Internal Medicine Division,300 Cedar Blvd,40.380283,-80.052889,Primary Care
Caring Hands Pediatrics PC,300 Cedar Ridge Drive,40.447419,-80.107761,Primary Care
Circulatory Center of PA Inc,300 Chapel Harbor Drive,40.485566,-79.882392,Primary Care
PPCP Fleet Street,300 Fleet St,40.421105,-80.0483,Primary Care
Bell Froman Orsini and Assoc,300 Fleet Street,40.421105,-80.0483,Primary Care
University Gastroenterology,300 Halket Street,40.436889,-79.9607,Primary Care
HVMG West Allegheny Healthcare Svcs,300 Penn Lincoln Drive,40.442187,-80.236293,Primary Care
Primary Care Health Services Group Practice,300 Rankin Boulevard,40.41199,-79.881091,Primary Care
Elizabeth Township Family Medicine UPMC,300 Scenery Drive,40.279434,-79.837007,Primary Care
"Gursky, Andrew E MD",300 Weyman Plaza,40.36044,-79.999838,Primary Care
"Adams, Rocco J., MD",3000 Brownsville Rd,40.381078,-79.976429,Primary Care
Lindenbaum Perryman and Assocs UPMC,3000 Brownsville Road,40.381078,-79.976429,Primary Care
UPP Department of Surgery,3000 Stonewood Drive,40.642253,-80.064689,Primary Care
"Kupfer, Samuel MD",3001 Jacks Run Road,40.344759,-79.798548,Primary Care
Bonacorsi Brown and Johnson Primary Care,3005 Banksville Road,40.401691,-80.041819,Primary Care
Allegheny Center For Digestive Health,301 First Avenue,40.600195,-79.752558,Primary Care
Heritage Valley Pediatrics Inc,301 Ohio River Boulevard,40.545894,-80.194586,Primary Care
Health Center Ophthalmology Inc,3021 Jacks Run Road,40.34489,-79.797421,Primary Care
MedExpress Urgent Care PC Pennsylvania,3024 Washington Pike,40.353281,-80.115383,Primary Care
MedExpress Urgent Care PC Pennsylvania,303 East Tenth Avenue,40.605459,-79.756208,Primary Care
Partners in Nephrology and Endocrinology,3063 Freeport Road,40.644151,-79.710483,Primary Care
Pittsburgh Internal Med Assoc UPMC,3089 Sussex Avenue,40.383771,-80.014178,Primary Care
Smithfield Medical,309 Smithfield Street,40.438508,-79.999956,Primary Care
University Geriatric Medicine Service,310 Fisk Street,40.465817,-79.958025,Primary Care
University Emergency Physicians Inc,311 South Craig Street,40.445452,-79.948526,Primary Care
Mercy Behavioral Health,315 South 9th Street,40.430416,-79.989063,Primary Care
Freedom Healthcare Services LLC,316 Station Street,40.358595,-80.113676,Primary Care
Hilltop Community Healthcare Center PCP,317 Climax Street,40.420111,-80.001958,Primary Care
Alle Kiski Medical Associates,317 First Avenue,40.600488,-79.751856,Primary Care
McGinnis Thoracic and Cardiovascular Associates,320 East North Avenue,40.45701,-80.003724,Primary Care
Allegheny Hospital Medicine Specialists,320 East North Street,40.45701,-80.003724,Primary Care
AGH Internal Medicine,320 Guys Run Road,40.536213,-79.849228,Primary Care
University of Pittsburgh Physicians,3200 South Water Street,40.424676,-79.959603,Primary Care
University Cardiology Service,3212 Main Street,40.387507,-79.902632,Primary Care
Health Associates of Western Pennsylvania PC,324 Rodi Road,40.460033,-79.823973,Primary Care
"Rudolph, Joseph P MD",330 Curry Hollow Rd,40.337521,-79.976872,Primary Care
Avenue to Wellness LLC,330 East Eighth Avenue,40.408316,-79.907921,Primary Care
Mercy Behavioral Health,330 South 9th Street,40.430273,-79.9904,Primary Care
The Primary Care Place,333 Allegheny Avenue,40.515893,-79.843837,Primary Care
"Choi, Sean H MD",333 Lincoln Hwy,40.38066,-79.810557,Primary Care
University of Pittsburgh Physicians,333 North Braddock Avenue,40.449748,-79.893734,Primary Care
UPP Department of Surgery,3380 Boulevard of the Allies,40.435254,-79.958319,Primary Care
Univ Rheumatology Svc,339 6th Avenue,40.441941,-80.001793,Primary Care
Margolis Rheumatology UPMC,339 Sixth Ave,40.442001,-79.998223,Primary Care
UPMC Downtown,339 Sixth Avenue,40.442001,-79.998223,Primary Care
Pediatric Alliance Fox Chapel Division,3394 Saxonburg Boulevard,40.548897,-79.914056,Primary Care
Hussaini Medical Associates,340 Lincoln Avenue,40.493897,-80.051611,Primary Care
Preferred Primary Care Physicians,3400 South Park Road,40.321783,-80.057607,Primary Care
Univ Nephrology Service,3420 Fifth Avenue,40.439501,-79.961089,Primary Care
Health Center Associates UPMC,3424 William Penn Highway,40.443074,-79.232696,Primary Care
MedExpress Urgent Care PC Pennsylvania,3433 William Penn Highway,40.429344,-79.812791,Primary Care
Suburban East Medical Center UPMC,3436 William Penn Highway,40.429028,-79.812828,Primary Care
UPP General Internal Medicine,3459 5th Avenue,40.440867,-79.96177,Primary Care
Univ Oncology Service,3459 Fifth Avenue,40.440867,-79.96177,Primary Care
University of Pittsburgh Physicians,3459 Fifth Avenue North,40.437926,-79.955642,Primary Care
University of Pittsburgh Physicians,3471 5th Avenue,40.440496,-79.960664,Primary Care
UPMC Shadyside Family Health Centers Inc,3471 Fifth Avenue,40.440496,-79.960664,Primary Care
Arthritis & Internal Medicine Associates UPMC,3500 Fifth Avenue,40.440371,-79.959841,Primary Care
University of Pittsburgh Physicians,3501 Forbes Avenue,40.440144,-79.959488,Primary Care
Univ Nephrology Service,3504 Fifth Avenue,40.440477,-79.959723,Primary Care
Univ Endocrinology Svc,3512 Fifth Avenue,40.44071,-79.9594,Primary Care
MedExpress Urgent Care PC Pennsylvania,3516 Saw Mill Run Boulevard,40.372678,-79.982319,Primary Care
University of Pittsburgh Physicians,3520 Fifth Avenue,40.440916,-79.959103,Primary Care
Univ Infectious Disease Svc,3549 Fifth Avenue 19th South,40.437926,-79.955642,Primary Care
Addiction and Recovery Health Services,355 5th Avenue,40.440398,-79.998778,Primary Care
UPP Department of Surgery,3550 Terrace Avenue,40.442513,-79.961826,Primary Care
UPP Department of Surgery,3550 Terrace Street,40.442513,-79.961826,Primary Care
UPP Department of Surgery,3550 Terrance Street,40.442513,-79.961826,Primary Care
UPP Department of Surgery,3600 Forbes Avenue,40.440557,-79.958052,Primary Care
UPP General Internal Medicine,3601 5th Avenue,40.441544,-79.959356,Primary Care
UPP Department of Surgery,3601 Fifith Avenue,40.441544,-79.959356,Primary Care
Univ Endocrinology Svc,3601 Fifth Avenue,40.441544,-79.959356,Primary Care
UPP Department of Surgery,3601 Fifth Avenue  6th Floor,40.441544,-79.959356,Primary Care
UPP Department of Surgery,3601 Fifth Avenue 4th Floor,40.441544,-79.959356,Primary Care
GMA Singh Medical Associates,3601 McKnight East Drive,40.537532,-80.00636,Primary Care
Comprehensive Care Associates UPMC,362 Lincoln Avenue,40.494029,-80.052422,Primary Care
Bower Hill Pediatrics,363 Vanadium Road,40.36961,-80.084856,Primary Care
Univ Oncology Service,3636 Boulevard of The Allies,40.434228,-79.953461,Primary Care
UPP Ped Adolescent Medcn,3705 Fifth Ave,40.441612,-79.958928,Primary Care
University of Pittsburgh Physicians,3705 Fifth Avenue,40.441612,-79.958928,Primary Care
University of Pittsburgh Physicians,3708 Fifth Avenue,40.441691,-79.957888,Primary Care
Brentwood Medical Group Inc,3720 Brownsville Road,40.372172,-79.97564,Primary Care
University of Pittsburgh Physicians,373 Burrows Street,40.44206,-79.970401,Primary Care
Pittsburgh Internal Med Assoc UPMC,3754 Libarary Road,40.364907,-80.021978,Primary Care
University of Pittsburgh Physicians,3811 OHara Street,40.443772,-79.960002,Primary Care
Premier Med Assoc Int Medicine,3824 Northern Pike,40.437512,-79.780996,Primary Care
Minute Clinic Diagnostic of PA LLC,3893 William Pen Highway,40.532508,-79.968039,Primary Care
SMA Jerome Scherer DO,391 Washington Avenue,40.516364,-79.841002,Primary Care
Fort Pitt Senior Health Care Associates,393 Vanadium Road,40.369047,-80.084473,Primary Care
University Critical Care,3937 Butler Street,40.468901,-79.963457,Primary Care
"Mickiewicz Marcinkowska, Ewa MD",4 Allegheny Center,40.453053,-80.004149,Primary Care
University of Pittsburgh Physicians,400 Holland Avenue,40.405049,-79.870219,Primary Care
University Cardiology Service,400 Oxford Drive,40.430525,-79.7876,Primary Care
"Price, Tamara L MD",400 Rouser Road,40.516977,-80.221348,Primary Care
Lindenbaum Perryman and Assocs UPMC,404 Bigham Street,40.431772,-80.015561,Primary Care
Primary Care Health Services Group Practice,404 N Braddock Avenue,40.404703,-79.871414,Primary Care
Univ Ear Nose Throat Specialists,4055 Monroeville Boulevard,40.436359,-79.768611,Primary Care
Lamperski Internal Medicine  LLC,4068 Mount Royal Boulevard,40.565194,-79.963852,Primary Care
Kids Plus Pediatrics PC,4070 Beechwood Boulevard,40.427302,-79.93828,Primary Care
CCP Monroeville Pediatric Assocs,4075 Monroeville Blvd,40.436255,-79.767946,Primary Care
University of Pittsburgh Physicians,4075 Monroeville Boulevard,40.436255,-79.767946,Primary Care
UPMC Keystone Primary Care Dr Paul,4099 William Penn Highway,40.439031,-79.769865,Primary Care
Circulatory Center of PA Inc,410 Rouser Road,40.518401,-80.166725,Primary Care
University of Pittsburgh Physicians,4117 Liberty Avenue,40.46368,-79.953771,Primary Care
University of Pittsburgh Physicians,4117 Penn Avenue,40.465912,-79.954695,Primary Care
Mercy Behavioral Health,412 East Commons,40.45124,-80.002317,Primary Care
UPMC Urgent Care at Monroeville,4145 William Penn Highway,40.439416,-79.765929,Primary Care
"Sivakumar, Usha MD LLC",415 East 4th Avenue,40.602777,-79.751532,Primary Care
Primary Care Health Services Group Practice,415 Neptune Street,40.440483,-80.032969,Primary Care
Craig B Liden Associates,4156 Kenneth Drive,40.624383,-79.943583,Primary Care
Medical Center Clinic,4185 Friendship Avenue,40.46587,-79.952163,Primary Care
Forest Hills Medical Associates UPMC,419 Westinghouse Avenue,40.390042,-79.810108,Primary Care
Pittsburgh Internal Med Assoc UPMC,4190 Brownsville Road,40.365525,-79.983247,Primary Care
Daljit Singh MD Associates,420 North Avenue,40.482606,-79.972885,Primary Care
Mamatas Ragoor Primary Care Associates,4217 Northern Pike,40.434246,-79.758942,Primary Care
Jefferson Internal Medicine PC,422 McMurray Road,40.312623,-80.066512,Primary Care
Mubashar Shouib Chughtai MD UPMC,424 West Grant Avenue,40.372616,-79.850141,Primary Care
Comprehensive Care Associates UPMC,4284 William Flynn Highway Route 8,40.559483,-79.959213,Primary Care
"Castiglione, Angelo MD",4318 Northern Pike,40.433635,-79.751267,Primary Care
Premier Medical  Associates Family  Practice,4341 Northern Pike,40.434821,-79.749405,Primary Care
"BEREZ, FRANNE MD",4354 Murray Avenue,40.42035,-79.928696,Primary Care
"Knupp, Donna L MD PC",4381 Murray Avenue,40.41978,-79.927931,Primary Care
Concentra Urgent Care,4390 Campbells Run Road,40.426212,-80.119053,Primary Care
Univ Ear Nose Throat Specialists,4401 Penn Avenue,40.467315,-79.95359,Primary Care
Steel City South Pediatrics,4411 Stilley Road,40.376066,-79.969628,Primary Care
CCP Bellevue Associates,446 Lincoln Avenue,40.49508,-80.054078,Primary Care
Teladoc Physicians PA,448 Woodland Road,40.557339,-80.19477,Primary Care
"Rudman, Richard MD",4487 Broadway,40.393702,-79.766375,Primary Care
UPP Department of Surgery,450 Holland Avenue,40.405278,-79.869523,Primary Care
Squirrel Hill Health Center,4516 Browns Hill Road,40.416861,-79.925444,Primary Care
Daljit Singh MD Associates,4520 Penn Avenue,40.467202,-79.944453,Primary Care
S W Leehan MD PC,455 East Bruceton Road,40.338077,-79.978961,Primary Care
Univ Ped Assoc Pediatric Neurology,45th Street and Penn Avenue,40.473711,-79.961237,Primary Care
University of Pittsburgh Physicians,4601 Baum Boulevard,40.454302,-79.95308,Primary Care
University of Pittsburgh Physicians,4608 Penn Avenue,40.465623,-79.949219,Primary Care
"McVay, William J MD",4627 5th Avenue,40.447436,-79.947828,Primary Care
MedExpress Urgent Care PC Pennsylvania,4655 William Flynn Highway,40.592049,-79.949299,Primary Care
University Cardiology Service,4721 McKnight Road,40.517805,-80.005705,Primary Care
UPP Department of Surgery,4725 McKnight Road,40.518453,-80.005589,Primary Care
West Penn Medical Associates,4727 Friendship Avenue,40.463232,-79.948128,Primary Care
SMG Santucci UPMC,4747 Liberty Avenue,40.461512,-79.948409,Primary Care
Office Based Anesthesia Solutions Inc,4762 Liberty Avenue,40.461011,-79.947864,Primary Care
Greater Pittsburgh Med Assoc UPMC,4773 Route 8,40.596284,-79.947693,Primary Care
Palliative Medicine Associates,4800 Friendship Avenue,40.461453,-79.946364,Primary Care
UPP Department of Surgery,4815 Liberty Avenue,40.461276,-79.946367,Primary Care
Primary Care Northside,490 East North Avenue,40.482805,-80.036726,Primary Care
ICare Medical,4905 William Penn Hwy,40.43084,-79.710368,Primary Care
Primary Care Health Services Group Practice,4918 Second Avenue,40.409453,-79.944118,Primary Care
CCP Pittsburgh Ped Assoc,4923 Centre Avenue,40.454157,-79.94556,Primary Care
SMA Jerome Scherer DO,4927 Route 8,40.603814,-79.94722,Primary Care
University Cardiology Service,495 East Waterfront Drive,40.413075,-79.907963,Primary Care
"Rudolph, Joseph P MD",4955 Steubenville Pike,40.449063,-80.109051,Primary Care
"Vernino, Richard J, DO",5 Grandview Avenue,40.431195,-80.006367,Primary Care
MedExpress Urgent Care PC Pennsylvania,50 Freeport Road,40.491468,-79.908081,Primary Care
Fort Pitt Senior Health Care Associates,50 Vanadium Road,40.371834,-80.091342,Primary Care
Allegheny Orthopaedic Associates,500 Blazier Drive,40.587367,-80.029893,Primary Care
Univ Rheumatology Svc,500 Hospital Way,40.350086,-79.849288,Primary Care
HVMG Billing,500 Industrial Boulevard,40.559483,-79.959213,Primary Care
Medical and Endocrinology Associates PC,500 Lewis Run Road,40.366826,-79.949233,Primary Care
Univ Rheumatology Svc,500 Naysmith Road,40.367725,-79.817298,Primary Care
Ohio Valley Professional Services,500 Pine Hollow Road,40.473857,-80.096769,Primary Care
Providence Point,500 Providence Point Boulevard,40.377073,-80.087758,Primary Care
Raja Chakrapani MD Rc Med Assoc,501 Penn Avenue,40.405902,-79.825048,Primary Care
UPP Department of Surgery,5115 Centre Avenue,40.45529,-79.942383,Primary Care
UPP Department of Surgery,5115 Centre Avenue 2nd Floor,40.437926,-79.955642,Primary Care
Oncology Hematology Association,5115 Centre Avenue 3rd Floor,40.451096,-79.933261,Primary Care
UPP Department of Surgery,5117 Centre Avenue,40.454856,-79.942137,Primary Care
Family Medicine Rutovic PC,5119 Clairton Boulevard,40.345831,-79.972906,Primary Care
"Roberts, Linda P MD",512 Edgewood Road,40.426977,-79.870436,Primary Care
McCollum Corporation,514 Beltzhoover Ave,40.417795,-79.997537,Primary Care
University Cardiology Service,5140 Liberty Avenue,40.457803,-79.942411,Primary Care
UPP Department of Surgery,5150 Centre Avenue,40.4545,-79.94161,Primary Care
Partners in Nephrology and Endocrinology,5171 Liberty Avenue,40.45806,-79.941567,Primary Care
Rabinowitz and Ciesielka MDs,5173 Liberty Avenue,40.457722,-79.941201,Primary Care
Fatigati and Nalin Associates,5187 Library Road,40.334293,-80.02305,Primary Care
Medi Help,519 Brookline Boulevard,40.396103,-80.022732,Primary Care
Univ Ear Nose Throat Specialists,5200 Center Avenue,40.447683,-80.068427,Primary Care
University Anesthesiology,5200 Centre Avenue,40.454933,-79.940334,Primary Care
MedExpress Urgent Care PC Pennsylvania,5201 Baum Boulevard,40.456186,-79.941914,Primary Care
Bernacki Family Practice and Wellness Center,521 Greenfield Avenue,40.425887,-79.941565,Primary Care
UPMC Shadyside Family Health Centers Inc,5215 Centre Avenue,40.455487,-79.941113,Primary Care
University General Internal Medc,5230 Centre Avenue,40.454842,-79.939791,Primary Care
University Emergency Physicians Inc,5231 Centre Avenue,40.455742,-79.940379,Primary Care
University of Pittsburgh Physicians,5231 Champion Commons,40.467202,-79.944453,Primary Care
"Frey III, Norman J DO",524 Beltzhoover Avenue,40.417575,-79.997531,Primary Care
"Pittle, Howard S MD PC",5247 Brownsville Road,40.342263,-79.985203,Primary Care
"Wagner, James D MD",525 Locust Place,40.541613,-80.180044,Primary Care
North Side Christian Health Center,525 Mount Pleasant Road,40.478014,-79.999949,Primary Care
Polinski Medical Associates,526 Perry Highway,40.522303,-80.034398,Primary Care
South Hills Physical Medicine Inc,5301 Grove Road,40.338077,-79.978961,Primary Care
University Cardiology Service,5318 Ranalli Drive,40.615819,-79.945299,Primary Care
Pinnacle Internal Medicine Associates LLC,532 South Aiken Avenue,40.454535,-79.938363,Primary Care
St Margaret Family Health Center,5321 Penn Ave,40.464918,-79.937814,Primary Care
CCP Healthquest Pediatrics,5321 William Flynn Highway,40.616471,-79.947037,Primary Care
University Geriatric Medicine Service,5360 Saltsburg Road,40.479959,-79.836171,Primary Care
Allegheny Center For Digestive Health,5375 William Flynn Highway,40.619568,-79.946359,Primary Care
"Santiesteban, Joseph MD",5426 Mifflin Road,40.368883,-79.910603,Primary Care
"Dicroce, Joseph N MD",5438 Centre Avenue,40.456262,-79.936721,Primary Care
St Margaret Family Health Center,5475 Penn Avenue,40.464614,-79.933295,Primary Care
Fatigati and Nalin Associates,5482 Campbells Run Road,40.445948,-80.158035,Primary Care
Vohra Health Services PA,550 South Negley Avenue,40.455217,-79.933213,Primary Care
RFP Glenshaw UPMC,5548 William Flynn Highway,40.631692,-79.940126,Primary Care
UPMC Squirrel Hill,5608 Wilkins Avenue,40.432709,-79.924867,Primary Care
JRMC Specialty Services Palliative Care,565 Coal Valley Road,40.31844,-79.933488,Primary Care
Pediatrics South Inc,5676 Steubenville Pike,40.465624,-80.065611,Primary Care
Steel City Internal Medicine UPMC,5700 Corporate Drive,40.556912,-80.019956,Primary Care
University Geriatric Medicine Service,5701 Philips Avenue,40.432709,-79.924867,Primary Care
Minute Clinic Diagnostic of PA LLC,5703 Steubenville Pike,40.451417,-80.134176,Primary Care
Mercy Behavioral Health,5704 Penn Avenue,40.462266,-79.928837,Primary Care
Jefferson Cardiology Association,575 Coal Valley Road,40.322888,-79.925019,Primary Care
"Cholapranee, Rewat MD",575 Lincoln Avenue,40.496632,-80.058208,Primary Care
University Geriatric Medicine Service,5750 Centre Avenue,40.457485,-79.932486,Primary Care
Oncology Hematology Association,5769 Saltsburg Road,40.482859,-79.82787,Primary Care
University of Pittsburgh Physicians,580 South Aiken Avenue,40.453371,-79.937781,Primary Care
UPMC Keystone Primary Care Dr Klein,580 South Aiken Street,40.453371,-79.937781,Primary Care
"Pandit, Santosh M MD",5800 Meridian Road,40.647697,-79.957066,Primary Care
East Side Pediatrics PC,5808 Eva Street,40.461269,-79.928386,Primary Care
St Barnabas Med Ctr Fam Prac,5830 Meridian Road,40.651779,-79.959201,Primary Care
Lindenbaum Perryman and Assocs UPMC,5855 Steubenville Pike,40.44996,-80.139458,Primary Care
UPMC Shadyside Family Health Centers Inc,5889 Forbes Avenue,40.438267,-79.919646,Primary Care
Allegheny Orthopaedic Associates,59 Fort Couch Road,40.337404,-80.051853,Primary Care
Jalit Tuchinda MD PC,596 Pine Hollow Road,40.470279,-80.07725,Primary Care
UPP Department of Surgery,600 Hospital Way,40.350101,-79.849391,Primary Care
University of Pittsburgh Physicians,600 Oxford Drive,40.429731,-79.788088,Primary Care
Hutton Healthcare Services LLC,600 Washington Avenue,40.35751,-80.113089,Primary Care
CCP Pittsburgh Ped Assoc,6000 Brooktree Road,40.614661,-80.061767,Primary Care
"Chen, Anne, MD",6000 Steubenville Pike,40.44554,-80.1447,Primary Care
Fatigati and Nalin Associates,601 McMillen Street,40.356181,-80.110056,Primary Care
Community Care Plus,601 Monroe Avenue,40.494816,-80.058004,Primary Care
"Schaefer, Thomas L MD",6011 Baptist Road,40.344276,-80.014777,Primary Care
East Liberty Family Health Care Center,6023 Harvard Street,40.462945,-79.923073,Primary Care
CCP Mt Lebanon,603 Washington Road,40.383052,-80.043599,Primary Care
James T Campagna MD PC,605 Scenery Drive,40.272426,-79.838106,Primary Care
CCP Bellevue Associates,6080 William Flynn Highway,40.662911,-79.933221,Primary Care
BN Roy MD and Assoc PC,609 Washington Pike,40.357002,-80.112971,Primary Care
Minute Clinic Diagnostic of PA LLC,611 Duncan Avenue,40.567853,-80.023271,Primary Care
Fatigati and Nalin Associates,615 Washington Road,40.372771,-80.047904,Primary Care
RFP Glenshaw UPMC,619 Mount Royal Boulevard,40.512895,-79.958396,Primary Care
Primary Care Health Services Group Practice,627 Lysle Boulevard,40.352477,-79.858547,Primary Care
Plenary Family Practice UPMC,6301 Forbes Avenue,40.438411,-79.919142,Primary Care
Childrens Institute of Pittsburgh Spec Phys,6301 Northumberland Street,40.44201,-79.91883,Primary Care
Carnegie Pediatrics,6315 Forbes Avenue,40.438334,-79.918449,Primary Care
CCP Gil,6343 Penn Avenue,40.459202,-79.919257,Primary Care
Connected Health Medical Services LLC,6400 Brooktree Court,40.613545,-80.06228,Primary Care
UPMC Emergency Medicine Inc,6502 Steubenville Pike,40.449272,-80.159748,Primary Care
Allegheny Center For Digestive Health,651 Holiday Drive,40.422169,-80.060752,Primary Care
HVMG Family Practice Robinson,6521 Stubenville Pike,40.44177,-80.087015,Primary Care
Pittsburgh North Cardiovascular Assoc,660 Lincoln Avenue,40.497983,-80.059788,Primary Care
Lindenbaum Perryman and Assocs UPMC,6600 Steubenville Pike,40.449602,-80.163912,Primary Care
V E Reyes MD and Associates,67 Old Clairton Road,40.338758,-79.963648,Primary Care
University of Pittsburgh Physicians,6714 Kelly Street,40.457744,-79.907929,Primary Care
"Offerman, Joop, MD",6740 Reynolds Street,40.45024,-79.914426,Primary Care
MedExpress Urgent Care PC Pennsylvania,695 Clairton Boulevard,40.328865,-79.944542,Primary Care
Sewickley Valley Pediatric and Adolescent Medicine PC,701 Broad Street,40.542164,-80.177104,Primary Care
Sto Rox Neighborhood Hlth Council Inc PCP,710 Thompson Avenue,40.465006,-80.06288,Primary Care
Community Primary Care,7110 Church Road,40.419746,-79.895141,Primary Care
UPP Ped Adolescent Medcn,7150 Highland Drive,40.478367,-79.899641,Primary Care
DeGiovanni Montini Associates,717 Washington Road,40.379659,-80.044701,Primary Care
East Liberty Family Health Care Center,7171 Churchland Street,40.470112,-79.89441,Primary Care
Penn Plum Family Medicine UPMC,7175 Saltsburg Road,40.476339,-79.789493,Primary Care
Pittsburgh HD VAMC,7180 Highland Drive,40.481609,-79.902839,Primary Care
"Chen, Anne, MD",7197 Saltsburg Road,40.477231,-79.78883,Primary Care
HVMG The Heart and Vascular Center Leetsdale,720 Blackburn Road,40.543454,-80.177601,Primary Care
MedExpress Urgent Care PC Pennsylvania,7219 McKnight Road,40.537972,-80.013336,Primary Care
Primary Care Health Services Group Practice,7227 Hamilton Avenue,40.454588,-79.896213,Primary Care
"Loya, Lauren D MD",730 Holiday Drive,40.421988,-80.063758,Primary Care
Univ Endocrinology Svc,733 Washington Road,40.379093,-80.044883,Primary Care
Office Based Anesthesia Solutions Inc,748 North Negley Avenue,40.471245,-79.926001,Primary Care
Greater Pittsburgh Med Assoc UPMC,7555 Saltsburg Road,40.476525,-79.781392,Primary Care
"Nelson, Lawrence J MD",777 Clairton Blvd,40.325158,-79.943952,Primary Care
KND Development 59 LLC,7777 Steubenville Pike,40.438642,-80.2087,Primary Care
Ramesh Pandey MD,803 Miller Avenue,40.287321,-79.88432,Primary Care
Office Based Anesthesia Solutions Inc,805 Jefferson Avenue,40.632145,-79.712411,Primary Care
Primary Care Health Services Group Practice,807 Wallace Avenue,40.441736,-79.881994,Primary Care
"Ho, Yee C MD",810 Wood Street,40.442408,-79.88518,Primary Care
AGH Internal Medicine,811 Camp Horne Road,40.523431,-80.073755,Primary Care
Comprehensive Care Associates UPMC,811 West View Park Drive,40.516783,-80.033056,Primary Care
Carnegie Pediatrics,813 Washington Avenue,40.402209,-80.082833,Primary Care
Univ Ear Nose Throat Specialists,815 Freeport Road,40.489286,-79.895994,Primary Care
GMA Koman and Kimmell Family Practice,8150 Perry Highway,40.555355,-80.038837,Primary Care
North Side Christian Health Center,816 Middle Street,40.455234,-79.999412,Primary Care
Advanced Nephrology Associates PC,824 California Avenue,40.499617,-80.065179,Primary Care
Alle Kiski Medical Associates,831 Pittsburgh Street,40.541465,-79.778819,Primary Care
Kids Plus Pediatrics PC,850 Clairton Boulevard,40.322326,-79.944112,Primary Care
MedExpress Urgent Care PC Pennsylvania,8702 University Boulevard,40.506125,-80.223605,Primary Care
CCP South Hills,88 Fort Couch Road,40.339237,-80.051253,Primary Care
Northern Medical Associates UPMC,880 Butler Street,40.5072,-79.94612,Primary Care
Pefha Health and Wellness Ctr PC,8989 Frankstown Road,40.461047,-79.867008,Primary Care
Greater Pittsburgh Med Assoc UPMC,900 Mount Royal Boulevard,40.515619,-79.95877,Primary Care
Pediatric Alliance PC Arcadia Division,9000 Perry Highway,40.570596,-80.036822,Primary Care
Family Prac Med Ctr,907 Washington Avenue,40.400664,-80.082519,Primary Care
University Gastroenterology,9100 Babcock Boulevard,40.573319,-80.014525,Primary Care
UPP Department of Surgery,9100 Babcok Boulevard,40.556912,-80.019956,Primary Care
UPP Department of Surgery,9102 Babcock Boulevard,40.572182,-80.016407,Primary Care
Gordon Gold MD and Assoc UPMC,9104  Babcock Boulevard,40.572315,-80.016451,Primary Care
GMA William Zillweger Med Prac,9104 Babcock Blvd,40.572315,-80.016451,Primary Care
James W Boyle MD and Associates UPMC,9104 Babcock Boulevard,40.572315,-80.016451,Primary Care
Campbell and Philbin Assoc,92 Bradford Avenue,40.433562,-80.065537,Primary Care
"Castiglione, Angelo MD",924 Main Street,40.494718,-79.932679,Primary Care
"Nellas, Constantine L MD",925 Brighton Road,40.453037,-80.014772,Primary Care
Mercy Behavioral Health,925 Penn Avenue,40.444224,-79.997339,Primary Care
Valley Family Medc UPMC,928 Route 910,40.58099,-79.866275,Primary Care
Allegheny Center For Digestive Health,9335 Mc Knight Road,40.53537,-80.010444,Primary Care
North Hills Internal Medicine,9335 McKnight Road,40.556912,-80.019956,Primary Care
HVMG The Heart and Vascular Center Leetsdale,935 Thorn Run Road,40.518401,-80.166725,Primary Care
University Cardiology Service,9365 McKnight Road,40.57461,-80.025499,Primary Care
University Cardiology Service,9380 McKnight Road,40.575952,-80.024742,Primary Care
Office Based Anesthesia Solutions Inc,9400 McKnight Road,40.576901,-80.025514,Primary Care
"Klug, Gerald D MD",944 Beaver Grade Rd,40.509999,-80.213038,Primary Care
Negrini Medical Associates,9500 Brooktree Road,40.614562,-80.058355,Primary Care
"Zioncheck, Roger MD PC",955 Rivermont Drive,40.40771,-79.93043,Primary Care
University Cardiology Service,969 Greentree Road,40.420345,-80.044964,Primary Care
West Hills Pediatrics LLC,974 Beaver Grade Road,40.507339,-80.210202,Primary Care
"Hepler Smith, Michael MD",9800 A McKnight Rd,40.586508,-80.038441,Primary Care
"Clark, Brent E., MD",9816 Frankstown Road,40.462628,-79.856428,Primary Care
Medical Center Clinic,9930 Grubbs Road,40.591637,-80.01693,Primary Care
McGinnis Thoracic and Cardiovascular Associates,995 Beaver Grade Road,40.506001,-80.207537,Primary Care
Greentree Medical Center PC,995 Greentree Road,40.417406,-80.044791,Primary Care
Mercy Behavioral Health,9983 Perry Highway,40.591551,-80.046949,Primary Care
Clearfield Jefferson Primary Care Assoc PC,Fifth Ave,40.447526,-79.993398,Primary Care
University Neonatology Associates,Forbes & Halket Streets,40.437068,-79.95953,Primary Care
United Physicians,Four Allegheny Center,40.482805,-80.036726,Primary Care
"Black, Judith Sherman  MD",Longwood at Oakmont,40.526673,-79.808362,Primary Care
HVMG Billing,Ohio River Blvd,40.563123,-80.208393,Primary Care
Upp Ped Child Dev Unit,One Hospital Drive,40.467315,-79.95359,Primary Care
Allegheny Center For Digestive Health,One Walsh Road,40.44177,-80.087015,Primary Care
"Jannelli, Dorothy F MD",Penn Avenue Place,40.447526,-79.993398,Primary Care
HVMG The Heart and Vascular Center Leetsdale,Robinson Plaza Three,40.44177,-80.087015,Primary Care
First Steps Pediatrics and Adolescent Medicine,Route 60 and Park Manor Drive,40.44177,-80.087015,Primary Care
Univ Infectious Disease Svc,University Drive,40.488899,-79.890069,Primary Care
Pittsburgh VA Medical Group,University Drive 111 C-U,40.488899,-79.890069,Primary Care
Pittsburgh VA Medical Group,University Drive C,40.445036,-79.958921,Primary Care
Pittsburgh VA Medical Group,University Drive C-124E-U,40.437926,-79.955642,Primary Care
HVMG The Heart and Vascular Center Leetsdale,Wexford Bayne Rd,40.536485,-80.184424,Primary Care
Adler and Krause Card Med Assoc,Yost at Ardmore Boulevard,40.436883,-79.857683,Primary Care
